HOKUSHIN-1              
1 69648U 98067YH  26183.27579618  .00024869  00000+0  43464-3 0  9990
2 69648  51.6307 225.3259 0006105 281.0628  78.9674 15.50484062  1999
STARLINK-37656          
1 69649U 26143A   26183.66668980 -.02430413  00000+0 -17368-1 0  9993
2 69649  97.2844 227.3006 0001458 100.6115 209.9813 15.77167041  2959
STARLINK-37646          
1 69650U 26143B   26183.66668980 -.00007814  00000+0 -40071-4 0  9998
2 69650  97.2840 227.3175 0001146  96.2366 251.0822 15.80826490  2958
STARLINK-37749          
1 69651U 26143C   26183.66668980 -.00056285  00000+0 -29423-3 0  9992
2 69651  97.2835 227.3221 0001375  82.4328 275.7869 15.80873089  2954
STARLINK-37819          
1 69652U 26143D   26183.66668980 -.00021638  00000+0 -11233-3 0  9997
2 69652  97.2838 227.3107 0001081  82.3072 248.1355 15.80850630  2951
STARLINK-37729          
1 69653U 26143E   26183.66668980 -.00042943  00000+0 -22411-3 0  9990
2 69653  97.2841 227.3194 0000869  93.7084 260.1096 15.80860370  2952
STARLINK-37838          
1 69654U 26143F   26183.66668980 -.00035106  00000+0 -18296-3 0  9990
2 69654  97.2838 227.3113 0001232  89.5902 244.9645 15.80853023  2954
STARLINK-37884          
1 69655U 26143G   26183.66668980 -.00037230  00000+0 -19404-3 0  9993
2 69655  97.2836 227.3319 0001455 112.6739 270.4000 15.80861281  2958
STARLINK-37876          
1 69656U 26143H   26183.66668980 -.00036872  00000+0 -19225-3 0  9996
2 69656  97.2835 227.3228 0000797  87.4500 273.4785 15.80853223  2859
STARLINK-37784          
1 69657U 26143J   26183.66668980 -.00016588  00000+0 -85882-4 0  9992
2 69657  97.2835 227.3237 0001145  89.3214 273.3977 15.80851877  2856
STARLINK-37851          
1 69658U 26143K   26183.66668980 -.00032030  00000+0 -16681-3 0  9993
2 69658  97.2838 227.3348 0001187  79.2519 309.0877 15.80852735  2844
STARLINK-37229          
1 69659U 26143L   26183.66668980 -.00039597  00000+0 -20646-3 0  9995
2 69659  97.2835 227.3144 0001360  82.2511 259.3669 15.80863971  2890
STARLINK-37556          
1 69660U 26143M   26183.66668980 -.00035716  00000+0 -18618-3 0  9992
2 69660  97.2835 227.3188 0001138  85.7385 266.3839 15.80852344  2899
STARLINK-37867          
1 69661U 26143N   26183.66668980 -.00016053  00000+0 -83093-4 0  9996
2 69661  97.2835 227.3402 0001329  90.1713 310.9885 15.80848945  2851
STARLINK-37852          
1 69662U 26143P   26183.66668980 -.00088548  00000+0 -46498-3 0  9992
2 69662  97.2836 227.3186 0001214  90.0031 265.1552 15.80875225  2850
STARLINK-37554          
1 69663U 26143Q   26183.66668980 -.00072770  00000+0 -38135-3 0  9992
2 69663  97.2837 227.3355 0001522 111.9233 281.4083 15.80871703  2890
STARLINK-37830          
1 69664U 26143R   26183.66668980 -.00028066  00000+0 -14603-3 0  9996
2 69664  97.2838 227.3208 0000975 123.5749 236.2161 15.80849437  2840
STARLINK-37837          
1 69665U 26143S   26183.66668980 -.00032355  00000+0 -16850-3 0  9999
2 69665  97.2835 227.3380 0000712 113.1571 283.9648 15.80855637  2855
STARLINK-37943          
1 69666U 26143T   26183.66668980 -.00059588  00000+0 -31174-3 0  9993
2 69666  97.2836 227.3329 0001447 116.4816 270.3821 15.80866976  2855
STARLINK-37941          
1 69667U 26143U   26183.66668980 -.00061381  00000+0 -32120-3 0  9990
2 69667  97.2837 227.3297 0001180  96.2001 282.4802 15.80868106  2856
STARLINK-37930          
1 69668U 26143V   26183.66668980 -.00067781  00000+0 -35497-3 0  9991
2 69668  97.2835 227.3318 0001205  99.8499 284.8585 15.80871596  2847
STARLINK-37945          
1 69669U 26143W   26183.66668980 -.00085029  00000+0 -44627-3 0  9992
2 69669  97.2832 227.3358 0001148  99.8142 294.8504 15.80876293  2852
STARLINK-37948          
1 69670U 26143X   26183.66668980 -.02367985  00000+0 -13962-1 0  9996
2 69670  97.2834 227.3728 0002028  99.4233  16.1347 15.81277940  2857
STARLINK-37949          
1 69671U 26143Y   26183.66668980 -.00055780  00000+0 -29167-3 0  9998
2 69671  97.2833 227.3594 0001242  96.2029 350.0492 15.80865263  2854
STARLINK-37946          
1 69672U 26143Z   26183.66668980 -.00072638  00000+0 -38067-3 0  9999
2 69672  97.2832 227.3501 0001172  98.3746 325.2383 15.80871919  2851
TJS-26A                 
1 69674U 26144A   26174.32980920  .00009630 -16661-6  31526-3 0  9997
2 69674  19.5157 324.7456 7314561 179.7910 181.1077  2.27958502    21
CZ-7A R/B               
1 69675U 26144B   26183.41249037  .00555910  12828-5  77881-3 0  9995
2 69675  19.4867 320.8869 7209624 186.0271 154.7737  2.44265563   248
2026-132G               
1 69676U 26132G   26178.13849605  .00008509  00000+0  61874-3 0  9998
2 69676  97.6876 241.7399 0021341 253.6187 106.2693 15.03894241  2272
STARLINK-38005          
1 69677U 26145A   26183.66668980 -.01974522  00000+0 -12990-1 0  9995
2 69677  97.2843  29.8830 0001466  75.7068 306.7415 15.78836626  2415
STARLINK-38009          
1 69678U 26145B   26183.66668980 -.01994439  00000+0 -12489-1 0  9998
2 69678  97.2842  29.8857 0001459  88.2929 300.2514 15.79952421  2413
