OBJECT_NAME,OBJECT_ID,EPOCH,MEAN_MOTION,ECCENTRICITY,INCLINATION,RA_OF_ASC_NODE,ARG_OF_PERICENTER,MEAN_ANOMALY,EPHEMERIS_TYPE,CLASSIFICATION_TYPE,NORAD_CAT_ID,ELEMENT_SET_NO,REV_AT_EPOCH,BSTAR,MEAN_MOTION_DOT,MEAN_MOTION_DDOT
HOKUSHIN-1,1998-067YH,2026-07-02T06:37:08.789952,15.50484062,.00061053,51.6307,225.3259,281.0628,78.9674,0,U,69648,999,199,.43464486E-3,.24869E-3,0
STARLINK-37656,2026-143A,2026-07-02T16:00:01.998720,15.77167041,.0001458,97.2844,227.3006,100.6115,209.9813,0,U,69649,999,295,-.17368E-1,-.2430413E-1,0
STARLINK-37646,2026-143B,2026-07-02T16:00:01.998720,15.80826490,.0001146,97.2840,227.3175,96.2366,251.0822,0,U,69650,999,295,-.40071E-4,-.7814E-4,0
STARLINK-37749,2026-143C,2026-07-02T16:00:01.998720,15.80873089,.0001375,97.2835,227.3221,82.4328,275.7869,0,U,69651,999,295,-.29423E-3,-.56285E-3,0
STARLINK-37819,2026-143D,2026-07-02T16:00:01.998720,15.80850630,.0001081,97.2838,227.3107,82.3072,248.1355,0,U,69652,999,295,-.11233E-3,-.21638E-3,0
STARLINK-37729,2026-143E,2026-07-02T16:00:01.998720,15.80860370,.0000869,97.2841,227.3194,93.7084,260.1096,0,U,69653,999,295,-.22411E-3,-.42943E-3,0
STARLINK-37838,2026-143F,2026-07-02T16:00:01.998720,15.80853023,.0001232,97.2838,227.3113,89.5902,244.9645,0,U,69654,999,295,-.18296E-3,-.35106E-3,0
STARLINK-37884,2026-143G,2026-07-02T16:00:01.998720,15.80861281,.0001455,97.2836,227.3319,112.6739,270.4000,0,U,69655,999,295,-.19404E-3,-.3723E-3,0
STARLINK-37876,2026-143H,2026-07-02T16:00:01.998720,15.80853223,.0000797,97.2835,227.3228,87.4500,273.4785,0,U,69656,999,285,-.19225E-3,-.36872E-3,0
STARLINK-37784,2026-143J,2026-07-02T16:00:01.998720,15.80851877,.0001145,97.2835,227.3237,89.3214,273.3977,0,U,69657,999,285,-.85882E-4,-.16588E-3,0
STARLINK-37851,2026-143K,2026-07-02T16:00:01.998720,15.80852735,.0001187,97.2838,227.3348,79.2519,309.0877,0,U,69658,999,284,-.16681E-3,-.3203E-3,0
STARLINK-37229,2026-143L,2026-07-02T16:00:01.998720,15.80863971,.000136,97.2835,227.3144,82.2511,259.3669,0,U,69659,999,289,-.20646E-3,-.39597E-3,0
STARLINK-37556,2026-143M,2026-07-02T16:00:01.998720,15.80852344,.0001138,97.2835,227.3188,85.7385,266.3839,0,U,69660,999,289,-.18618E-3,-.35716E-3,0
STARLINK-37867,2026-143N,2026-07-02T16:00:01.998720,15.80848945,.0001329,97.2835,227.3402,90.1713,310.9885,0,U,69661,999,285,-.83093E-4,-.16053E-3,0
STARLINK-37852,2026-143P,2026-07-02T16:00:01.998720,15.80875225,.0001214,97.2836,227.3186,90.0031,265.1552,0,U,69662,999,285,-.46498E-3,-.88548E-3,0
STARLINK-37554,2026-143Q,2026-07-02T16:00:01.998720,15.80871703,.0001522,97.2837,227.3355,111.9233,281.4083,0,U,69663,999,289,-.38135E-3,-.7277E-3,0
STARLINK-37830,2026-143R,2026-07-02T16:00:01.998720,15.80849437,.0000975,97.2838,227.3208,123.5749,236.2161,0,U,69664,999,284,-.14603E-3,-.28066E-3,0
STARLINK-37837,2026-143S,2026-07-02T16:00:01.998720,15.80855637,.0000712,97.2835,227.3380,113.1571,283.9648,0,U,69665,999,285,-.1685E-3,-.32355E-3,0
STARLINK-37943,2026-143T,2026-07-02T16:00:01.998720,15.80866976,.0001447,97.2836,227.3329,116.4816,270.3821,0,U,69666,999,285,-.31174E-3,-.59588E-3,0
STARLINK-37941,2026-143U,2026-07-02T16:00:01.998720,15.80868106,.000118,97.2837,227.3297,96.2001,282.4802,0,U,69667,999,285,-.3212E-3,-.61381E-3,0
STARLINK-37930,2026-143V,2026-07-02T16:00:01.998720,15.80871596,.0001205,97.2835,227.3318,99.8499,284.8585,0,U,69668,999,284,-.35497E-3,-.67781E-3,0
STARLINK-37945,2026-143W,2026-07-02T16:00:01.998720,15.80876293,.0001148,97.2832,227.3358,99.8142,294.8504,0,U,69669,999,285,-.44627E-3,-.85029E-3,0
STARLINK-37948,2026-143X,2026-07-02T16:00:01.998720,15.81277940,.0002028,97.2834,227.3728,99.4233,16.1347,0,U,69670,999,285,-.13962E-1,-.2367985E-1,0
STARLINK-37949,2026-143Y,2026-07-02T16:00:01.998720,15.80865263,.0001242,97.2833,227.3594,96.2029,350.0492,0,U,69671,999,285,-.29167E-3,-.5578E-3,0
STARLINK-37946,2026-143Z,2026-07-02T16:00:01.998720,15.80871919,.0001172,97.2832,227.3501,98.3746,325.2383,0,U,69672,999,285,-.38067E-3,-.72638E-3,0
TJS-26A,2026-144A,2026-06-23T07:54:55.514880,2.27958502,.73145613,19.5157,324.7456,179.7910,181.1077,0,U,69674,999,2,.31526459E-3,.963E-4,-.166614E-6
CZ-7A R/B,2026-144B,2026-07-02T09:53:59.167968,2.44265563,.7209624,19.4867,320.8869,186.0271,154.7737,0,U,69675,999,24,.77881E-3,.55591E-2,.12828E-5
2026-132G,2026-132G,2026-06-27T03:19:26.058720,15.03894241,.00213411,97.6876,241.7399,253.6187,106.2693,0,U,69676,999,227,.61874088E-3,.8509E-4,0
STARLINK-38005,2026-145A,2026-07-02T16:00:01.998720,15.78836626,.0001466,97.2843,29.8830,75.7068,306.7415,0,U,69677,999,241,-.1299E-1,-.1974522E-1,0
STARLINK-38009,2026-145B,2026-07-02T16:00:01.998720,15.79952421,.0001459,97.2842,29.8857,88.2929,300.2514,0,U,69678,999,241,-.12489E-1,-.1994439E-1,0
